start=new Date('2022-11-06T00:00:00.000Z').valueOf();
sats=[{"RCS_SIZE":"LARGE","TIME_SYSTEM":"UTC","GP_ID":"217020935","MEAN_MOTION":"15.01239663","CENTER_NAME":"EARTH","SEMIMAJOR_AXIS":"6941.210","MEAN_ELEMENT_THEORY":"SGP4","RA_OF_ASC_NODE":"189.1800","MEAN_ANOMALY":"101.1225","BSTAR":"0.00096561000000","TLE_LINE2":"2 53662  97.6565 189.1800 0002397  93.6986 101.1225 15.01239663  1303","OBJECT_NAME":"STARLINK-4357","ARG_OF_PERICENTER":"93.6986","REV_AT_EPOCH":"130","MEAN_MOTION_DDOT":"0.0000000000000","ECCENTRICITY":"0.00023970","FILE":"3646512","LAUNCH_DATE":"2022-08-31","PERIAPSIS":"561.411","REF_FRAME":"TEME","COUNTRY_CODE":"US","OBJECT_TYPE":"PAYLOAD","OBJECT_ID":"2022-105Q","TLE_LINE1":"1 53662U 22105Q   22309.91668981  .00012359  00000-0  96561-3 0  9996","APOAPSIS":"564.738","SITE":"AFWTR","CLASSIFICATION_TYPE":"U","MEAN_MOTION_DOT":"0.00012359","EPHEMERIS_TYPE":"0","ELEMENT_SET_NO":"999","PERIOD":"95.921","NORAD_CAT_ID":"53662","DECAY_DATE":null,"EPOCH":"2022-11-05T22:00:01.999584","INCLINATION":"97.6565"},{"GP_ID":"217021555","MEAN_MOTION":"15.01232485","RCS_SIZE":"LARGE","TIME_SYSTEM":"UTC","MEAN_ELEMENT_THEORY":"SGP4","RA_OF_ASC_NODE":"189.1838","MEAN_ANOMALY":"56.8872","CENTER_NAME":"EARTH","SEMIMAJOR_AXIS":"6941.232","ARG_OF_PERICENTER":"107.9261","BSTAR":"0.00111030000000","TLE_LINE2":"2 53663  97.6593 189.1838 0001789 107.9261  56.8872 15.01232485  1304","OBJECT_NAME":"STARLINK-4457","ECCENTRICITY":"0.00017890","REV_AT_EPOCH":"130","MEAN_MOTION_DDOT":"0.0000000000000","LAUNCH_DATE":"2022-08-31","FILE":"3646512","REF_FRAME":"TEME","COUNTRY_CODE":"US","PERIAPSIS":"561.855","OBJECT_TYPE":"PAYLOAD","OBJECT_ID":"2022-105R","APOAPSIS":"564.338","TLE_LINE1":"1 53663U 22105R   22309.91668981  .00014220  00000-0  11103-2 0  9994","SITE":"AFWTR","CLASSIFICATION_TYPE":"U","ELEMENT_SET_NO":"999","EPHEMERIS_TYPE":"0","MEAN_MOTION_DOT":"0.00014220","PERIOD":"95.921","EPOCH":"2022-11-05T22:00:01.999584","NORAD_CAT_ID":"53663","DECAY_DATE":null,"INCLINATION":"97.6593"},{"PERIAPSIS":"561.277","REF_FRAME":"TEME","COUNTRY_CODE":"US","FILE":"3646512","LAUNCH_DATE":"2022-08-31","OBJECT_ID":"2022-105S","OBJECT_TYPE":"PAYLOAD","CENTER_NAME":"EARTH","SEMIMAJOR_AXIS":"6941.192","RA_OF_ASC_NODE":"189.1799","MEAN_ELEMENT_THEORY":"SGP4","MEAN_ANOMALY":"111.2050","RCS_SIZE":"LARGE","TIME_SYSTEM":"UTC","MEAN_MOTION":"15.01245381","GP_ID":"217020691","REV_AT_EPOCH":"130","MEAN_MOTION_DDOT":"0.0000000000000","ECCENTRICITY":"0.00025640","BSTAR":"0.00040248000000","TLE_LINE2":"2 53664  97.6562 189.1799 0002564  93.6394 111.2050 15.01245381  1300","OBJECT_NAME":"STARLINK-4471","ARG_OF_PERICENTER":"93.6394","PERIOD":"95.920","MEAN_MOTION_DOT":"0.00005112","ELEMENT_SET_NO":"999","EPHEMERIS_TYPE":"0","INCLINATION":"97.6562","NORAD_CAT_ID":"53664","DECAY_DATE":null,"EPOCH":"2022-11-05T22:00:01.999584","SITE":"AFWTR","TLE_LINE1":"1 53664U 22105S   22309.91668981  .00005112  00000-0  40248-3 0  9998","APOAPSIS":"564.837","CLASSIFICATION_TYPE":"U"},{"OBJECT_ID":"2022-105T","OBJECT_TYPE":"PAYLOAD","REF_FRAME":"TEME","COUNTRY_CODE":"US","PERIAPSIS":"562.197","LAUNCH_DATE":"2022-08-31","FILE":"3646512","ECCENTRICITY":"0.00017310","REV_AT_EPOCH":"130","MEAN_MOTION_DDOT":"0.0000000000000","ARG_OF_PERICENTER":"100.6834","BSTAR":"0.00937610000000","TLE_LINE2":"2 53665  97.6580 189.1831 0001731 100.6834  82.8214 15.01134418  1304","OBJECT_NAME":"STARLINK-4334","RA_OF_ASC_NODE":"189.1831","MEAN_ELEMENT_THEORY":"SGP4","MEAN_ANOMALY":"82.8214","CENTER_NAME":"EARTH","SEMIMAJOR_AXIS":"6941.534","MEAN_MOTION":"15.01134418","GP_ID":"217021728","RCS_SIZE":"LARGE","TIME_SYSTEM":"UTC","INCLINATION":"97.6580","EPOCH":"2022-11-05T22:00:01.999584","NORAD_CAT_ID":"53665","DECAY_DATE":null,"PERIOD":"95.927","ELEMENT_SET_NO":"999","EPHEMERIS_TYPE":"0","MEAN_MOTION_DOT":"0.00122074","CLASSIFICATION_TYPE":"U","TLE_LINE1":"1 53665U 22105T   22309.91668981  .00122074  00000-0  93761-2 0  9993","SITE":"AFWTR","APOAPSIS":"564.601"},{"EPHEMERIS_TYPE":"0","ELEMENT_SET_NO":"999","MEAN_MOTION_DOT":"0.00010361","PERIOD":"95.921","EPOCH":"2022-11-05T22:00:01.999584","DECAY_DATE":null,"NORAD_CAT_ID":"53666","INCLINATION":"97.6552","SITE":"AFWTR","TLE_LINE1":"1 53666U 22105U   22309.91668981  .00010361  00000-0  81064-3 0  9993","APOAPSIS":"565.107","CLASSIFICATION_TYPE":"U","LAUNCH_DATE":"2022-08-31","FILE":"3646512","COUNTRY_CODE":"US","REF_FRAME":"TEME","PERIAPSIS":"561.095","OBJECT_TYPE":"PAYLOAD","OBJECT_ID":"2022-105U","MEAN_MOTION":"15.01231039","GP_ID":"217020518","TIME_SYSTEM":"UTC","RCS_SIZE":"LARGE","MEAN_ANOMALY":"131.9271","MEAN_ELEMENT_THEORY":"SGP4","RA_OF_ASC_NODE":"189.1798","SEMIMAJOR_AXIS":"6941.236","CENTER_NAME":"EARTH","ARG_OF_PERICENTER":"91.5802","OBJECT_NAME":"STARLINK-4449","BSTAR":"0.00081064000000","TLE_LINE2":"2 53666  97.6552 189.1798 0002890  91.5802 131.9271 15.01231039  1302","ECCENTRICITY":"0.00028900","MEAN_MOTION_DDOT":"0.0000000000000","REV_AT_EPOCH":"130"},{"CENTER_NAME":"EARTH","SEMIMAJOR_AXIS":"6941.191","MEAN_ELEMENT_THEORY":"SGP4","RA_OF_ASC_NODE":"189.1825","MEAN_ANOMALY":"70.7539","TIME_SYSTEM":"UTC","RCS_SIZE":"LARGE","GP_ID":"217021283","MEAN_MOTION":"15.01245763","REV_AT_EPOCH":"130","MEAN_MOTION_DDOT":"0.0000000000000","ECCENTRICITY":"0.00015250","TLE_LINE2":"2 53667  97.6583 189.1825 0001525 113.9024  70.7539 15.01245763  1303","BSTAR":"0.00101890000000","OBJECT_NAME":"STARLINK-4406","ARG_OF_PERICENTER":"113.9024","PERIAPSIS":"561.997","REF_FRAME":"TEME","COUNTRY_CODE":"US","FILE":"3646512","LAUNCH_DATE":"2022-08-31","OBJECT_ID":"2022-105V","OBJECT_TYPE":"PAYLOAD","APOAPSIS":"564.114","TLE_LINE1":"1 53667U 22105V   22309.91668981  .00013047  00000-0  10189-2 0  9997","SITE":"AFWTR","CLASSIFICATION_TYPE":"U","PERIOD":"95.920","MEAN_MOTION_DOT":"0.00013047","ELEMENT_SET_NO":"999","EPHEMERIS_TYPE":"0","INCLINATION":"97.6583","NORAD_CAT_ID":"53667","DECAY_DATE":null,"EPOCH":"2022-11-05T22:00:01.999584"},{"PERIAPSIS":"561.101","REF_FRAME":"TEME","COUNTRY_CODE":"US","FILE":"3646512","LAUNCH_DATE":"2022-08-31","OBJECT_ID":"2022-105W","OBJECT_TYPE":"PAYLOAD","CENTER_NAME":"EARTH","SEMIMAJOR_AXIS":"6941.195","MEAN_ELEMENT_THEORY":"SGP4","RA_OF_ASC_NODE":"189.1775","MEAN_ANOMALY":"131.9187","RCS_SIZE":"LARGE","TIME_SYSTEM":"UTC","MEAN_MOTION":"15.01244528","GP_ID":"217021109","REV_AT_EPOCH":"130","MEAN_MOTION_DDOT":"0.0000000000000","ECCENTRICITY":"0.00028210","BSTAR":"0.00083127000000","TLE_LINE2":"2 53668  97.6544 189.1775 0002821  92.9395 131.9187 15.01244528  1309","OBJECT_NAME":"STARLINK-4458","ARG_OF_PERICENTER":"92.9395","PERIOD":"95.920","MEAN_MOTION_DOT":"0.00010630","ELEMENT_SET_NO":"999","EPHEMERIS_TYPE":"0","INCLINATION":"97.6544","NORAD_CAT_ID":"53668","DECAY_DATE":null,"EPOCH":"2022-11-05T22:00:01.999584","SITE":"AFWTR","TLE_LINE1":"1 53668U 22105W   22309.91668981  .00010630  00000-0  83127-3 0  9996","APOAPSIS":"565.018","CLASSIFICATION_TYPE":"U"},{"EPHEMERIS_TYPE":"0","ELEMENT_SET_NO":"999","MEAN_MOTION_DOT":"0.00011121","PERIOD":"95.922","EPOCH":"2022-11-05T22:00:01.999584","NORAD_CAT_ID":"53669","DECAY_DATE":null,"INCLINATION":"97.6549","TLE_LINE1":"1 53669U 22105X   22309.91668981  .00011121  00000-0  86984-3 0  9997","APOAPSIS":"564.877","SITE":"AFWTR","CLASSIFICATION_TYPE":"U","LAUNCH_DATE":"2022-08-31","FILE":"3646512","REF_FRAME":"TEME","COUNTRY_CODE":"US","PERIAPSIS":"561.366","OBJECT_TYPE":"PAYLOAD","OBJECT_ID":"2022-105X","MEAN_MOTION":"15.01224383","GP_ID":"217021456","RCS_SIZE":"LARGE","TIME_SYSTEM":"UTC","MEAN_ELEMENT_THEORY":"SGP4","RA_OF_ASC_NODE":"189.1783","MEAN_ANOMALY":"117.3992","CENTER_NAME":"EARTH","SEMIMAJOR_AXIS":"6941.257","ARG_OF_PERICENTER":"97.3971","BSTAR":"0.00086984000000","TLE_LINE2":"2 53669  97.6549 189.1783 0002529  97.3971 117.3992 15.01224383  1307","OBJECT_NAME":"STARLINK-4464","ECCENTRICITY":"0.00025290","REV_AT_EPOCH":"130","MEAN_MOTION_DDOT":"0.0000000000000"},{"EPOCH":"2022-11-05T22:00:01.999584","DECAY_DATE":null,"NORAD_CAT_ID":"53670","INCLINATION":"97.6545","ELEMENT_SET_NO":"999","EPHEMERIS_TYPE":"0","MEAN_MOTION_DOT":"0.00007578","PERIOD":"95.920","CLASSIFICATION_TYPE":"U","TLE_LINE1":"1 53670U 22105Y   22309.91668981  .00007578  00000-0  59407-3 0  9990","APOAPSIS":"565.261","SITE":"AFWTR","OBJECT_TYPE":"PAYLOAD","OBJECT_ID":"2022-105Y","LAUNCH_DATE":"2022-08-31","FILE":"3646512","COUNTRY_CODE":"US","REF_FRAME":"TEME","PERIAPSIS":"560.831","ARG_OF_PERICENTER":"94.4735","OBJECT_NAME":"STARLINK-4459","BSTAR":"0.00059407000000","TLE_LINE2":"2 53670  97.6545 189.1783 0003191  94.4735 150.3782 15.01248977  1306","ECCENTRICITY":"0.00031910","MEAN_MOTION_DDOT":"0.0000000000000","REV_AT_EPOCH":"130","MEAN_MOTION":"15.01248977","GP_ID":"217020936","TIME_SYSTEM":"UTC","RCS_SIZE":"LARGE","MEAN_ANOMALY":"150.3782","RA_OF_ASC_NODE":"189.1783","MEAN_ELEMENT_THEORY":"SGP4","SEMIMAJOR_AXIS":"6941.181","CENTER_NAME":"EARTH"},{"MEAN_MOTION_DOT":"-0.00024500","EPHEMERIS_TYPE":"0","ELEMENT_SET_NO":"999","PERIOD":"95.920","DECAY_DATE":null,"NORAD_CAT_ID":"53671","EPOCH":"2022-11-05T22:00:01.999584","INCLINATION":"97.6534","TLE_LINE1":"1 53671U 22105Z   22309.91668981 -.00024500  00000-0 -19095-2 0  9995","APOAPSIS":"564.756","SITE":"AFWTR","CLASSIFICATION_TYPE":"U","FILE":"3646512","LAUNCH_DATE":"2022-08-31","PERIAPSIS":"561.279","COUNTRY_CODE":"US","REF_FRAME":"TEME","OBJECT_TYPE":"PAYLOAD","OBJECT_ID":"2022-105Z","RCS_SIZE":"LARGE","TIME_SYSTEM":"UTC","GP_ID":"217021556","MEAN_MOTION":"15.01258167","SEMIMAJOR_AXIS":"6941.152","CENTER_NAME":"EARTH","MEAN_ANOMALY":"139.1004","MEAN_ELEMENT_THEORY":"SGP4","RA_OF_ASC_NODE":"189.1763","OBJECT_NAME":"STARLINK-4440","BSTAR":"-0.00190950000000","TLE_LINE2":"2 53671  97.6534 189.1763 0002504  95.7407 139.1004 15.01258167  1304","ARG_OF_PERICENTER":"95.7407","MEAN_MOTION_DDOT":"0.0000000000000","REV_AT_EPOCH":"130","ECCENTRICITY":"0.00025040"}];
